{"type": "FeatureCollection", "features": [ {"type": "Feature", "properties": {"norad_id": 57401, "name": "TIANMU-1 09", "group": "weather", "lat": 14.80426704071917, "lon": 43.37957206651784, "alt_km": 478.8684164084416, "timestamp": "2025-12-22T08:58:19.987189+00:00", "meta": {"OBJECT_NAME": "TIANMU-1 09", "OBJECT_ID": "2023-101C", "EPOCH": "2025-12-22T04:11:33.805248", "MEAN_MOTION": 15.28213348, "ECCENTRICITY": 0.0006416, "INCLINATION": 97.2806, "RA_OF_ASC_NODE": 45.1213, "ARG_OF_PERICENTER": 58.0107, "MEAN_ANOMALY": 302.1756, "EPHEMERIS_TYPE": 0, "CLASSIFICATION_TYPE": "U", "NORAD_CAT_ID": 57401, "ELEMENT_SET_NO": 999, "REV_AT_EPOCH": 13459, "BSTAR": 0.00029783, "MEAN_MOTION_DOT": 8.121e-05, "MEAN_MOTION_DDOT": 0}, "tle": {"line1": "1 57401U 23101C   25356.17469682  .00008121  00000+0  29783-3 0  9991", "line2": "2 57401  97.2806  45.1213 0006416  58.0107 302.1756 15.28213348134598"}}, "geometry": {"type": "Point", "coordinates": [43.37957206651784, 14.80426704071917]}}, {"type": "Feature", "properties": {"norad_id": 57402, "name": "TIANMU-1 10", "group": "weather", "lat": -6.864537896734364, "lon": -134.7067790847682, "alt_km": 488.822142307622, "timestamp": "2025-12-22T08:58:19.987199+00:00", "meta": {"OBJECT_NAME": "TIANMU-1 10", "OBJECT_ID": "2023-101D", "EPOCH": "2025-12-22T03:26:36.767904", "MEAN_MOTION": 15.28204776, "ECCENTRICITY": 0.0008138, "INCLINATION": 97.2885, "RA_OF_ASC_NODE": 45.9507, "ARG_OF_PERICENTER": 56.0596, "MEAN_ANOMALY": 304.1416, "EPHEMERIS_TYPE": 0, "CLASSIFICATION_TYPE": "U", "NORAD_CAT_ID": 57402, "ELEMENT_SET_NO": 999, "REV_AT_EPOCH": 13458, "BSTAR": 0.00030032, "MEAN_MOTION_DOT": 8.19e-05, "MEAN_MOTION_DDOT": 0}, "tle": {"line1": "1 57402U 23101D   25356.14348111  .00008190  00000+0  30032-3 0  9997", "line2": "2 57402  97.2885  45.9507 0008138  56.0596 304.1416 15.28204776134582"}}, "geometry": {"type": "Point", "coordinates": [-134.7067790847682, -6.864537896734364]}}, {"type": "Feature", "properties": {"norad_id": 57490, "name": "FENGYUN 3F", "group": "weather", "lat": -60.45193913946204, "lon": 80.19526017300609, "alt_km": 833.380715352725, "timestamp": "2025-12-22T08:58:19.987211+00:00", "meta": {"OBJECT_NAME": "FENGYUN 3F", "OBJECT_ID": "2023-111A", "EPOCH": "2025-12-22T04:11:18.630816", "MEAN_MOTION": 14.19895952, "ECCENTRICITY": 7.8e-05, "INCLINATION": 98.7071, "RA_OF_ASC_NODE": 64.3152, "ARG_OF_PERICENTER": 114.7563, "MEAN_ANOMALY": 245.3695, "EPHEMERIS_TYPE": 0, "CLASSIFICATION_TYPE": "U", "NORAD_CAT_ID": 57490, "ELEMENT_SET_NO": 999, "REV_AT_EPOCH": 12374, "BSTAR": 5.724e-05, "MEAN_MOTION_DOT": 7.8e-07, "MEAN_MOTION_DDOT": 0}, "tle": {"line1": "1 57490U 23111A   25356.17452119  .00000078  00000+0  57240-4 0  9990", "line2": "2 57490  98.7071  64.3152 0000780 114.7563 245.3695 14.19895952123746"}}, "geometry": {"type": "Point", "coordinates": [80.19526017300609, -60.45193913946204]}}, {"type": "Feature", "properties": {"norad_id": 58584, "name": "ARKTIKA-M 2", "group": "weather", "lat": 46.36021824455824, "lon": -154.1791940791663, "alt_km": 26267.091344318233, "timestamp": "2025-12-22T08:58:19.987223+00:00", "meta": {"OBJECT_NAME": "ARKTIKA-M 2", "OBJECT_ID": "2023-198A", "EPOCH": "2025-12-20T07:20:06.590112", "MEAN_MOTION": 2.00602824, "ECCENTRICITY": 0.68654675, "INCLINATION": 63.225, "RA_OF_ASC_NODE": 174.0676, "ARG_OF_PERICENTER": 268.0739, "MEAN_ANOMALY": 18.8406, "EPHEMERIS_TYPE": 0, "CLASSIFICATION_TYPE": "U", "NORAD_CAT_ID": 58584, "ELEMENT_SET_NO": 999, "REV_AT_EPOCH": 1473, "BSTAR": 0, "MEAN_MOTION_DOT": 2.01e-06, "MEAN_MOTION_DDOT": 0}, "tle": {"line1": "1 58584U 23198A   25354.30563183  .00000201  00000+0  00000+0 0  9992", "line2": "2 58584  63.2250 174.0676 6865467 268.0739  18.8406  2.00602824 14734"}}, "geometry": {"type": "Point", "coordinates": [-154.1791940791663, 46.36021824455824]}}, {"type": "Feature", "properties": {"norad_id": 58645, "name": "TIANMU-1 11", "group": "weather", "lat": -64.12905691400113, "lon": -179.62911048204663, "alt_km": 494.1844951532885, "timestamp": "2025-12-22T08:58:19.987236+00:00", "meta": {"OBJECT_NAME": "TIANMU-1 11", "OBJECT_ID": "2023-205A", "EPOCH": "2025-12-22T04:44:59.321184", "MEAN_MOTION": 15.24706898, "ECCENTRICITY": 0.0007526, "INCLINATION": 97.3593, "RA_OF_ASC_NODE": 15.655, "ARG_OF_PERICENTER": 269.9462, "MEAN_ANOMALY": 90.0914, "EPHEMERIS_TYPE": 0, "CLASSIFICATION_TYPE": "U", "NORAD_CAT_ID": 58645, "ELEMENT_SET_NO": 999, "REV_AT_EPOCH": 11053, "BSTAR": 0.00026715, "MEAN_MOTION_DOT": 6.542e-05, "MEAN_MOTION_DDOT": 0}, "tle": {"line1": "1 58645U 23205A   25356.19790881  .00006542  00000+0  26715-3 0  9994", "line2": "2 58645  97.3593  15.6550 0007526 269.9462  90.0914 15.24706898110539"}}, "geometry": {"type": "Point", "coordinates": [-179.62911048204663, -64.12905691400113]}}, {"type": "Feature", "properties": {"norad_id": 58646, "name": "TIANMU-1 12", "group": "weather", "lat": 81.9397722578371, "lon": -98.51442764048348, "alt_km": 488.17461758888567, "timestamp": "2025-12-22T08:58:19.987246+00:00", "meta": {"OBJECT_NAME": "TIANMU-1 12", "OBJECT_ID": "2023-205B", "EPOCH": "2025-12-22T05:24:49.678272", "MEAN_MOTION": 15.24592885, "ECCENTRICITY": 0.0005845, "INCLINATION": 97.3581, "RA_OF_ASC_NODE": 15.4844, "ARG_OF_PERICENTER": 248.1231, "MEAN_ANOMALY": 111.9385, "EPHEMERIS_TYPE": 0, "CLASSIFICATION_TYPE": "U", "NORAD_CAT_ID": 58646, "ELEMENT_SET_NO": 999, "REV_AT_EPOCH": 11052, "BSTAR": 0.00027234, "MEAN_MOTION_DOT": 6.646e-05, "MEAN_MOTION_DDOT": 0}, "tle": {"line1": "1 58646U 23205B   25356.22557498  .00006646  00000+0  27234-3 0  9996", "line2": "2 58646  97.3581  15.4844 0005845 248.1231 111.9385 15.24592885110529"}}, "geometry": {"type": "Point", "coordinates": [-98.51442764048348, 81.9397722578371]}}, {"type": "Feature", "properties": {"norad_id": 58647, "name": "TIANMU-1 13", "group": "weather", "lat": -82.58560577553806, "lon": 99.24193653674357, "alt_km": 496.1891144345318, "timestamp": "2025-12-22T08:58:19.987256+00:00", "meta": {"OBJECT_NAME": "TIANMU-1 13", "OBJECT_ID": "2023-205C", "EPOCH": "2025-12-22T04:38:14.493120", "MEAN_MOTION": 15.24635735, "ECCENTRICITY": 0.0006417, "INCLINATION": 97.3608, "RA_OF_ASC_NODE": 15.6576, "ARG_OF_PERICENTER": 225.3325, "MEAN_ANOMALY": 134.7391, "EPHEMERIS_TYPE": 0, "CLASSIFICATION_TYPE": "U", "NORAD_CAT_ID": 58647, "ELEMENT_SET_NO": 999, "REV_AT_EPOCH": 11051, "BSTAR": 0.00027275, "MEAN_MOTION_DOT": 6.665e-05, "MEAN_MOTION_DDOT": 0}, "tle": {"line1": "1 58647U 23205C   25356.19322330  .00006665  00000+0  27275-3 0  9994", "line2": "2 58647  97.3608  15.6576 0006417 225.3325 134.7391 15.24635735110512"}}, "geometry": {"type": "Point", "coordinates": [99.24193653674357, -82.58560577553806]}}, {"type": "Feature", "properties": {"norad_id": 58648, "name": "TIANMU-1 14", "group": "weather", "lat": 1.191784110921406, "lon": 15.02096175699646, "alt_km": 498.0379884591457, "timestamp": "2025-12-22T08:58:19.987267+00:00", "meta": {"OBJECT_NAME": "TIANMU-1 14", "OBJECT_ID": "2023-205D", "EPOCH": "2025-12-22T04:14:29.149728", "MEAN_MOTION": 15.24618568, "ECCENTRICITY": 0.0007127, "INCLINATION": 97.3541, "RA_OF_ASC_NODE": 14.9814, "ARG_OF_PERICENTER": 231.5993, "MEAN_ANOMALY": 128.4605, "EPHEMERIS_TYPE": 0, "CLASSIFICATION_TYPE": "U", "NORAD_CAT_ID": 58648, "ELEMENT_SET_NO": 999, "REV_AT_EPOCH": 11051, "BSTAR": 0.0002572, "MEAN_MOTION_DOT": 6.279e-05, "MEAN_MOTION_DDOT": 0}, "tle": {"line1": "1 58648U 23205D   25356.17672627  .00006279  00000+0  25720-3 0  9994", "line2": "2 58648  97.3541  14.9814 0007127 231.5993 128.4605 15.24618568110518"}}, "geometry": {"type": "Point", "coordinates": [15.02096175699646, 1.191784110921406]}}, {"type": "Feature", "properties": {"norad_id": 58660, "name": "TIANMU-1 19", "group": "weather", "lat": 12.680548988016014, "lon": 105.70827413976829, "alt_km": 486.0511418195101, "timestamp": "2025-12-22T08:58:19.987277+00:00", "meta": {"OBJECT_NAME": "TIANMU-1 19", "OBJECT_ID": "2023-208A", "EPOCH": "2025-12-22T05:46:22.812384", "MEAN_MOTION": 15.28012213, "ECCENTRICITY": 0.0004603, "INCLINATION": 97.4394, "RA_OF_ASC_NODE": 107.26, "ARG_OF_PERICENTER": 211.5892, "MEAN_ANOMALY": 148.5072, "EPHEMERIS_TYPE": 0, "CLASSIFICATION_TYPE": "U", "NORAD_CAT_ID": 58660, "ELEMENT_SET_NO": 999, "REV_AT_EPOCH": 11027, "BSTAR": 0.000362, "MEAN_MOTION_DOT": 9.823e-05, "MEAN_MOTION_DDOT": 0}, "tle": {"line1": "1 58660U 23208A   25356.24054181  .00009823  00000+0  36200-3 0  9991", "line2": "2 58660  97.4394 107.2600 0004603 211.5892 148.5072 15.28012213110273"}}, "geometry": {"type": "Point", "coordinates": [105.70827413976829, 12.680548988016014]}}, {"type": "Feature", "properties": {"norad_id": 58661, "name": "TIANMU-1 20", "group": "weather", "lat": 51.05260888309712, "lon": -62.854166628981744, "alt_km": 474.1268292053637, "timestamp": "2025-12-22T08:58:19.987286+00:00", "meta": {"OBJECT_NAME": "TIANMU-1 20", "OBJECT_ID": "2023-208B", "EPOCH": "2025-12-22T03:42:04.505184", "MEAN_MOTION": 15.29200314, "ECCENTRICITY": 0.0006649, "INCLINATION": 97.4333, "RA_OF_ASC_NODE": 107.6306, "ARG_OF_PERICENTER": 226.5609, "MEAN_ANOMALY": 133.5078, "EPHEMERIS_TYPE": 0, "CLASSIFICATION_TYPE": "U", "NORAD_CAT_ID": 58661, "ELEMENT_SET_NO": 999, "REV_AT_EPOCH": 11033, "BSTAR": 0.00034318, "MEAN_MOTION_DOT": 9.657e-05, "MEAN_MOTION_DDOT": 0}, "tle": {"line1": "1 58661U 23208B   25356.15421881  .00009657  00000+0  34318-3 0  9990", "line2": "2 58661  97.4333 107.6306 0006649 226.5609 133.5078 15.29200314110337"}}, "geometry": {"type": "Point", "coordinates": [-62.854166628981744, 51.05260888309712]}}]}